STARLINK-31586          
1 59205U 24046E   26010.84582093  .00000307  00000+0  22480-4 0  9994
2 59205  53.1597  64.0021 0000934  98.7309 261.3797 15.30195893104192
STARLINK-31247          
1 59206U 24046F   26010.79422785  .00005328  00000+0  19189-3 0  9999
2 59206  53.1606  64.3870 0001182  88.5210 271.5926 15.30197285104186
STARLINK-31591          
1 59207U 24046G   26010.44654778 -.00000434  00000+0 -25248-5 0  9991
2 59207  53.1588  65.7751 0001161  75.4136 284.6993 15.30194892104133
STARLINK-31576          
1 59208U 24046H   26010.43807567  .00004236  00000+0  15492-3 0  9997
2 59208  53.1601  65.7214 0001055  64.5118 295.5992 15.30230075104139
STARLINK-31601          
1 59209U 24046J   26010.42754818  .00001300  00000+0  55997-4 0  9991
2 59209  53.1589  65.6538 0001197  90.7381 269.3757 15.30198631104132
STARLINK-31520          
1 59210U 24046K   26010.52980510  .00000712  00000+0  36186-4 0  9999
2 59210  53.1618  65.5805 0001172 100.5501 259.5632 15.30189231104140
STARLINK-31496          
1 59211U 24046L   26010.39967941 -.00000014  00000+0  11639-4 0  9990
2 59211  53.1601  53.4125 0001146  73.4304 286.6823 15.30189766104296
STARLINK-31492          
1 59212U 24046M   26009.91668981  .00015480  00000+0  53417-3 0  9990
2 59212  53.1586  68.6315 0001554  99.3436  16.8195 15.30170351  5817
STARLINK-31517          
1 59213U 24046N   26010.44761497  .00001418  00000+0  60043-4 0  9997
2 59213  53.1603  65.8082 0001228  99.4058 260.7082 15.30172741104121
STARLINK-31604          
1 59214U 24046P   26010.51608763  .00004776  00000+0  17328-3 0  9999
2 59214  53.1586  65.4944 0001295  78.2286 281.8860 15.30199818104130
STARLINK-31434          
1 59215U 24046Q   26010.42438389 -.00000108  00000+0  84898-5 0  9999
2 59215  53.1599  65.6291 0001274 125.8065 234.3054 15.30195894104120
STARLINK-31417          
1 59216U 24046R   26010.41711649  .00001435  00000+0  60558-4 0  9991
2 59216  53.1603  66.3032 0001161  87.4428 272.6706 15.30196622103992
STARLINK-31499          
1 59217U 24046S   26010.56557500  .00001330  00000+0  57064-4 0  9994
2 59217  53.1606  65.0926 0001918  95.4040 264.7180 15.30188193104143
STARLINK-31421          
1 59218U 24046T   26010.42966954  .00002287  00000+0  89316-4 0  9994
2 59218  53.1607  65.6930 0000811  63.5349 296.5735 15.30201460104125
STARLINK-31518          
1 59219U 24046U   26010.44127059 -.00000262  00000+0  32831-5 0  9995
2 59219  53.1605  65.7392 0001179  89.9562 270.1574 15.30195888104129
STARLINK-31523          
1 59220U 24046V   26010.84899079 -.00000175  00000+0  62017-5 0  9991
2 59220  53.1600  64.0162 0001134  83.0550 277.0580 15.30192641104189
