[{"OBJECT_NAME":"STARLINK-31586","OBJECT_ID":"2024-046E","EPOCH":"2026-01-10T20:17:58.928352","MEAN_MOTION":15.30195893,"ECCENTRICITY":9.346e-5,"INCLINATION":53.1597,"RA_OF_ASC_NODE":64.0021,"ARG_OF_PERICENTER":98.7309,"MEAN_ANOMALY":261.3797,"EPHEMERIS_TYPE":0,"CLASSIFICATION_TYPE":"U","NORAD_CAT_ID":59205,"ELEMENT_SET_NO":999,"REV_AT_EPOCH":10419,"BSTAR":2.2480134e-5,"MEAN_MOTION_DOT":3.07e-6,"MEAN_MOTION_DDOT":0},{"OBJECT_NAME":"STARLINK-31247","OBJECT_ID":"2024-046F","EPOCH":"2026-01-10T19:03:41.286240","MEAN_MOTION":15.30197285,"ECCENTRICITY":0.00011829,"INCLINATION":53.1606,"RA_OF_ASC_NODE":64.387,"ARG_OF_PERICENTER":88.521,"MEAN_ANOMALY":271.5926,"EPHEMERIS_TYPE":0,"CLASSIFICATION_TYPE":"U","NORAD_CAT_ID":59206,"ELEMENT_SET_NO":999,"REV_AT_EPOCH":10418,"BSTAR":0.00019189055,"MEAN_MOTION_DOT":5.328e-5,"MEAN_MOTION_DDOT":0},{"OBJECT_NAME":"STARLINK-31591","OBJECT_ID":"2024-046G","EPOCH":"2026-01-10T10:43:01.728192","MEAN_MOTION":15.30194892,"ECCENTRICITY":0.00011612,"INCLINATION":53.1588,"RA_OF_ASC_NODE":65.7751,"ARG_OF_PERICENTER":75.4136,"MEAN_ANOMALY":284.6993,"EPHEMERIS_TYPE":0,"CLASSIFICATION_TYPE":"U","NORAD_CAT_ID":59207,"ELEMENT_SET_NO":999,"REV_AT_EPOCH":10413,"BSTAR":-2.524838e-6,"MEAN_MOTION_DOT":-4.34e-6,"MEAN_MOTION_DDOT":0},{"OBJECT_NAME":"STARLINK-31576","OBJECT_ID":"2024-046H","EPOCH":"2026-01-10T10:30:49.737888","MEAN_MOTION":15.30230075,"ECCENTRICITY":0.00010556,"INCLINATION":53.1601,"RA_OF_ASC_NODE":65.7214,"ARG_OF_PERICENTER":64.5118,"MEAN_ANOMALY":295.5992,"EPHEMERIS_TYPE":0,"CLASSIFICATION_TYPE":"U","NORAD_CAT_ID":59208,"ELEMENT_SET_NO":999,"REV_AT_EPOCH":10413,"BSTAR":0.00015492001,"MEAN_MOTION_DOT":4.236e-5,"MEAN_MOTION_DDOT":0},{"OBJECT_NAME":"STARLINK-31601","OBJECT_ID":"2024-046J","EPOCH":"2026-01-10T10:15:40.162752","MEAN_MOTION":15.30198631,"ECCENTRICITY":0.00011976,"INCLINATION":53.1589,"RA_OF_ASC_NODE":65.6538,"ARG_OF_PERICENTER":90.7381,"MEAN_ANOMALY":269.3757,"EPHEMERIS_TYPE":0,"CLASSIFICATION_TYPE":"U","NORAD_CAT_ID":59209,"ELEMENT_SET_NO":999,"REV_AT_EPOCH":10413,"BSTAR":5.5997335e-5,"MEAN_MOTION_DOT":1.3e-5,"MEAN_MOTION_DDOT":0},{"OBJECT_NAME":"STARLINK-31520","OBJECT_ID":"2024-046K","EPOCH":"2026-01-10T12:42:55.160640","MEAN_MOTION":15.30189231,"ECCENTRICITY":0.00011721,"INCLINATION":53.1618,"RA_OF_ASC_NODE":65.5805,"ARG_OF_PERICENTER":100.5501,"MEAN_ANOMALY":259.5632,"EPHEMERIS_TYPE":0,"CLASSIFICATION_TYPE":"U","NORAD_CAT_ID":59210,"ELEMENT_SET_NO":999,"REV_AT_EPOCH":10414,"BSTAR":3.6186116e-5,"MEAN_MOTION_DOT":7.12e-6,"MEAN_MOTION_DDOT":0},{"OBJECT_NAME":"STARLINK-31496","OBJECT_ID":"2024-046L","EPOCH":"2026-01-10T09:35:32.301024","MEAN_MOTION":15.30189766,"ECCENTRICITY":0.00011462,"INCLINATION":53.1601,"RA_OF_ASC_NODE":53.4125,"ARG_OF_PERICENTER":73.4304,"MEAN_ANOMALY":286.6823,"EPHEMERIS_TYPE":0,"CLASSIFICATION_TYPE":"U","NORAD_CAT_ID":59211,"ELEMENT_SET_NO":999,"REV_AT_EPOCH":10429,"BSTAR":1.1639081e-5,"MEAN_MOTION_DOT":-1.4e-7,"MEAN_MOTION_DDOT":0},{"OBJECT_NAME":"STARLINK-31492","OBJECT_ID":"2024-046M","EPOCH":"2026-01-09T22:00:01.999584","MEAN_MOTION":15.30170351,"ECCENTRICITY":0.00015544,"INCLINATION":53.1586,"RA_OF_ASC_NODE":68.6315,"ARG_OF_PERICENTER":99.3436,"MEAN_ANOMALY":16.8195,"EPHEMERIS_TYPE":0,"CLASSIFICATION_TYPE":"U","NORAD_CAT_ID":59212,"ELEMENT_SET_NO":999,"REV_AT_EPOCH":581,"BSTAR":0.0005341732,"MEAN_MOTION_DOT":0.0001548,"MEAN_MOTION_DDOT":0},{"OBJECT_NAME":"STARLINK-31517","OBJECT_ID":"2024-046N","EPOCH":"2026-01-10T10:44:33.933408","MEAN_MOTION":15.30172741,"ECCENTRICITY":0.0001228,"INCLINATION":53.1603,"RA_OF_ASC_NODE":65.8082,"ARG_OF_PERICENTER":99.4058,"MEAN_ANOMALY":260.7082,"EPHEMERIS_TYPE":0,"CLASSIFICATION_TYPE":"U","NORAD_CAT_ID":59213,"ELEMENT_SET_NO":999,"REV_AT_EPOCH":10412,"BSTAR":6.0043327e-5,"MEAN_MOTION_DOT":1.418e-5,"MEAN_MOTION_DDOT":0},{"OBJECT_NAME":"STARLINK-31604","OBJECT_ID":"2024-046P","EPOCH":"2026-01-10T12:23:09.971232","MEAN_MOTION":15.30199818,"ECCENTRICITY":0.00012951,"INCLINATION":53.1586,"RA_OF_ASC_NODE":65.4944,"ARG_OF_PERICENTER":78.2286,"MEAN_ANOMALY":281.886,"EPHEMERIS_TYPE":0,"CLASSIFICATION_TYPE":"U","NORAD_CAT_ID":59214,"ELEMENT_SET_NO":999,"REV_AT_EPOCH":10413,"BSTAR":0.00017327986,"MEAN_MOTION_DOT":4.776e-5,"MEAN_MOTION_DDOT":0},{"OBJECT_NAME":"STARLINK-31434","OBJECT_ID":"2024-046Q","EPOCH":"2026-01-10T10:11:06.768096","MEAN_MOTION":15.30195894,"ECCENTRICITY":0.00012749,"INCLINATION":53.1599,"RA_OF_ASC_NODE":65.6291,"ARG_OF_PERICENTER":125.8065,"MEAN_ANOMALY":234.3054,"EPHEMERIS_TYPE":0,"CLASSIFICATION_TYPE":"U","NORAD_CAT_ID":59215,"ELEMENT_SET_NO":999,"REV_AT_EPOCH":10412,"BSTAR":8.489771e-6,"MEAN_MOTION_DOT":-1.08e-6,"MEAN_MOTION_DDOT":0},{"OBJECT_NAME":"STARLINK-31417","OBJECT_ID":"2024-046R","EPOCH":"2026-01-10T10:00:38.864736","MEAN_MOTION":15.30196622,"ECCENTRICITY":0.00011616,"INCLINATION":53.1603,"RA_OF_ASC_NODE":66.3032,"ARG_OF_PERICENTER":87.4428,"MEAN_ANOMALY":272.6706,"EPHEMERIS_TYPE":0,"CLASSIFICATION_TYPE":"U","NORAD_CAT_ID":59216,"ELEMENT_SET_NO":999,"REV_AT_EPOCH":10399,"BSTAR":6.0558182e-5,"MEAN_MOTION_DOT":1.435e-5,"MEAN_MOTION_DDOT":0},{"OBJECT_NAME":"STARLINK-31499","OBJECT_ID":"2024-046S","EPOCH":"2026-01-10T13:34:25.680000","MEAN_MOTION":15.30188193,"ECCENTRICITY":0.00019189,"INCLINATION":53.1606,"RA_OF_ASC_NODE":65.0926,"ARG_OF_PERICENTER":95.404,"MEAN_ANOMALY":264.718,"EPHEMERIS_TYPE":0,"CLASSIFICATION_TYPE":"U","NORAD_CAT_ID":59217,"ELEMENT_SET_NO":999,"REV_AT_EPOCH":10414,"BSTAR":5.7063916e-5,"MEAN_MOTION_DOT":1.33e-5,"MEAN_MOTION_DDOT":0},{"OBJECT_NAME":"STARLINK-31421","OBJECT_ID":"2024-046T","EPOCH":"2026-01-10T10:18:43.448256","MEAN_MOTION":15.3020146,"ECCENTRICITY":8.11e-5,"INCLINATION":53.1607,"RA_OF_ASC_NODE":65.693,"ARG_OF_PERICENTER":63.5349,"MEAN_ANOMALY":296.5735,"EPHEMERIS_TYPE":0,"CLASSIFICATION_TYPE":"U","NORAD_CAT_ID":59218,"ELEMENT_SET_NO":999,"REV_AT_EPOCH":10412,"BSTAR":8.9315908e-5,"MEAN_MOTION_DOT":2.287e-5,"MEAN_MOTION_DDOT":0},{"OBJECT_NAME":"STARLINK-31518","OBJECT_ID":"2024-046U","EPOCH":"2026-01-10T10:35:25.778976","MEAN_MOTION":15.30195888,"ECCENTRICITY":0.0001179,"INCLINATION":53.1605,"RA_OF_ASC_NODE":65.7392,"ARG_OF_PERICENTER":89.9562,"MEAN_ANOMALY":270.1574,"EPHEMERIS_TYPE":0,"CLASSIFICATION_TYPE":"U","NORAD_CAT_ID":59219,"ELEMENT_SET_NO":999,"REV_AT_EPOCH":10412,"BSTAR":3.283062e-6,"MEAN_MOTION_DOT":-2.62e-6,"MEAN_MOTION_DDOT":0},{"OBJECT_NAME":"STARLINK-31523","OBJECT_ID":"2024-046V","EPOCH":"2026-01-10T20:22:32.804256","MEAN_MOTION":15.30192641,"ECCENTRICITY":0.00011348,"INCLINATION":53.16,"RA_OF_ASC_NODE":64.0162,"ARG_OF_PERICENTER":83.055,"MEAN_ANOMALY":277.058,"EPHEMERIS_TYPE":0,"CLASSIFICATION_TYPE":"U","NORAD_CAT_ID":59220,"ELEMENT_SET_NO":999,"REV_AT_EPOCH":10418,"BSTAR":6.201719e-6,"MEAN_MOTION_DOT":-1.75e-6,"MEAN_MOTION_DDOT":0}]
